start=new Date('2021-09-11T00:00:00.000Z').valueOf();
sats=[{"RCS_SIZE":"LARGE","ECCENTRICITY":"0.00044090","INCLINATION":"53.0454","ARG_OF_PERICENTER":"5.6708","BSTAR":"-0.00008037200000","TLE_LINE1":"1 47992U 21024R   21254.00001157 -.00011895  00000-0 -80372-4 0  9998","LAUNCH_DATE":"2021-03-24","OBJECT_ID":"2021-024R","EPOCH":"2021-09-11T00:00:00.999648","TIME_SYSTEM":"UTC","REF_FRAME":"TEME","MEAN_ANOMALY":"3.0883","CENTER_NAME":"EARTH","PERIAPSIS":"346.816","TLE_LINE2":"2 47992  53.0454  76.4464 0004409   5.6708   3.0883 15.73192387  3672","NORAD_CAT_ID":"47992","MEAN_ELEMENT_THEORY":"SGP4","APOAPSIS":"352.748","REV_AT_EPOCH":"367","SEMIMAJOR_AXIS":"6727.917","PERIOD":"91.534","SITE":"AFETR","MEAN_MOTION":"15.73192387","FILE":"3112758","COUNTRY_CODE":"US","OBJECT_NAME":"STARLINK-2229","GP_ID":"184474778","CLASSIFICATION_TYPE":"U","ELEMENT_SET_NO":"999","EPHEMERIS_TYPE":"0","OBJECT_TYPE":"PAYLOAD","MEAN_MOTION_DOT":"-0.00011895","MEAN_MOTION_DDOT":"0.0000000000000","RA_OF_ASC_NODE":"76.4464","DECAY_DATE":null},{"DECAY_DATE":null,"RA_OF_ASC_NODE":"101.9520","MEAN_MOTION_DDOT":"0.0000000000000","MEAN_MOTION_DOT":"0.00041995","EPHEMERIS_TYPE":"0","OBJECT_TYPE":"PAYLOAD","ELEMENT_SET_NO":"999","CLASSIFICATION_TYPE":"U","GP_ID":"184475528","OBJECT_NAME":"STARLINK-2273","COUNTRY_CODE":"US","MEAN_MOTION":"15.06366234","FILE":"3112758","SITE":"AFETR","PERIOD":"95.594","SEMIMAJOR_AXIS":"6925.452","REV_AT_EPOCH":"357","APOAPSIS":"548.781","MEAN_ELEMENT_THEORY":"SGP4","NORAD_CAT_ID":"47993","TLE_LINE2":"2 47993  53.0538 101.9520 0002114  94.0511  74.5354 15.06366234  3573","PERIAPSIS":"545.853","CENTER_NAME":"EARTH","MEAN_ANOMALY":"74.5354","REF_FRAME":"TEME","TIME_SYSTEM":"UTC","EPOCH":"2021-09-11T00:00:00.999648","OBJECT_ID":"2021-024S","LAUNCH_DATE":"2021-03-24","TLE_LINE1":"1 47993U 21024S   21254.00001157  .00041995  00000-0  28240-2 0  9995","BSTAR":"0.00282400000000","INCLINATION":"53.0538","ARG_OF_PERICENTER":"94.0511","ECCENTRICITY":"0.00021140","RCS_SIZE":"LARGE"},{"DECAY_DATE":null,"RA_OF_ASC_NODE":"116.7393","MEAN_MOTION_DDOT":"0.0000000000000","MEAN_MOTION_DOT":"0.00027974","EPHEMERIS_TYPE":"0","OBJECT_TYPE":"PAYLOAD","ELEMENT_SET_NO":"999","CLASSIFICATION_TYPE":"U","GP_ID":"184474276","OBJECT_NAME":"STARLINK-2290","COUNTRY_CODE":"US","FILE":"3112758","MEAN_MOTION":"15.03930700","SITE":"AFETR","PERIOD":"95.749","SEMIMAJOR_AXIS":"6932.927","REV_AT_EPOCH":"356","APOAPSIS":"556.411","MEAN_ELEMENT_THEORY":"SGP4","NORAD_CAT_ID":"47994","TLE_LINE2":"2 47994  53.0528 116.7393 0002335  76.6046 179.9330 15.03930700  3564","PERIAPSIS":"553.173","CENTER_NAME":"EARTH","MEAN_ANOMALY":"179.9330","REF_FRAME":"TEME","TIME_SYSTEM":"UTC","EPOCH":"2021-09-11T00:00:00.999648","LAUNCH_DATE":"2021-03-24","OBJECT_ID":"2021-024T","TLE_LINE1":"1 47994U 21024T   21254.00001157  .00027974  00000-0  20184-2 0  9996","BSTAR":"0.00201840000000","INCLINATION":"53.0528","ARG_OF_PERICENTER":"76.6046","ECCENTRICITY":"0.00023350","RCS_SIZE":"LARGE"},{"RA_OF_ASC_NODE":"81.7348","DECAY_DATE":null,"MEAN_MOTION_DOT":"-0.00910424","MEAN_MOTION_DDOT":"0.0000000000000","EPHEMERIS_TYPE":"0","OBJECT_TYPE":"PAYLOAD","COUNTRY_CODE":"US","OBJECT_NAME":"STARLINK-2309","GP_ID":"184474526","CLASSIFICATION_TYPE":"U","ELEMENT_SET_NO":"999","PERIOD":"94.784","SITE":"AFETR","MEAN_MOTION":"15.19242508","FILE":"3112758","SEMIMAJOR_AXIS":"6886.266","REV_AT_EPOCH":"363","MEAN_ELEMENT_THEORY":"SGP4","APOAPSIS":"509.036","MEAN_ANOMALY":"187.0961","CENTER_NAME":"EARTH","TLE_LINE2":"2 47995  53.0466  81.7348 0001314  96.6664 187.0961 15.19242508  3638","NORAD_CAT_ID":"47995","PERIAPSIS":"507.226","EPOCH":"2021-09-11T00:00:00.999648","TIME_SYSTEM":"UTC","REF_FRAME":"TEME","LAUNCH_DATE":"2021-03-24","OBJECT_ID":"2021-024U","TLE_LINE1":"1 47995U 21024U   21254.00001157 -.00910424  00000-0 -46024-1 0  9990","ECCENTRICITY":"0.00013140","INCLINATION":"53.0466","ARG_OF_PERICENTER":"96.6664","BSTAR":"-0.04602400000000","RCS_SIZE":"MEDIUM"},{"SITE":"AFETR","PERIOD":"91.536","FILE":"3112758","MEAN_MOTION":"15.73144497","SEMIMAJOR_AXIS":"6728.053","MEAN_MOTION_DOT":"0.00072613","MEAN_MOTION_DDOT":"0.0000000000000","RA_OF_ASC_NODE":"76.4399","DECAY_DATE":null,"OBJECT_NAME":"STARLINK-2260","COUNTRY_CODE":"US","ELEMENT_SET_NO":"999","CLASSIFICATION_TYPE":"U","GP_ID":"184475278","EPHEMERIS_TYPE":"0","OBJECT_TYPE":"PAYLOAD","TLE_LINE1":"1 47996U 21024V   21254.00001157  .00072613  00000-0  51825-3 0  9995","LAUNCH_DATE":"2021-03-24","OBJECT_ID":"2021-024V","RCS_SIZE":"LARGE","ARG_OF_PERICENTER":"357.5752","INCLINATION":"53.0453","ECCENTRICITY":"0.00044080","BSTAR":"0.00051825000000","APOAPSIS":"352.884","MEAN_ELEMENT_THEORY":"SGP4","REV_AT_EPOCH":"367","EPOCH":"2021-09-11T00:00:00.999648","REF_FRAME":"TEME","TIME_SYSTEM":"UTC","MEAN_ANOMALY":"13.7289","PERIAPSIS":"346.953","TLE_LINE2":"2 47996  53.0453  76.4399 0004408 357.5752  13.7289 15.73144497  3676","NORAD_CAT_ID":"47996","CENTER_NAME":"EARTH"},{"SITE":"AFETR","PERIOD":"95.594","MEAN_MOTION":"15.06378446","FILE":"3112758","SEMIMAJOR_AXIS":"6925.415","RA_OF_ASC_NODE":"116.9485","DECAY_DATE":null,"MEAN_MOTION_DOT":"0.00028179","MEAN_MOTION_DDOT":"0.0000000000000","EPHEMERIS_TYPE":"0","OBJECT_TYPE":"PAYLOAD","OBJECT_NAME":"STARLINK-2266","COUNTRY_CODE":"US","ELEMENT_SET_NO":"999","CLASSIFICATION_TYPE":"U","GP_ID":"184475029","LAUNCH_DATE":"2021-03-24","OBJECT_ID":"2021-024W","TLE_LINE1":"1 47997U 21024W   21254.00001157  .00028179  00000-0  19042-2 0  9998","INCLINATION":"53.0548","ARG_OF_PERICENTER":"73.3066","ECCENTRICITY":"0.00021200","BSTAR":"0.00190420000000","RCS_SIZE":"LARGE","REV_AT_EPOCH":"356","APOAPSIS":"548.748","MEAN_ELEMENT_THEORY":"SGP4","MEAN_ANOMALY":"172.7580","TLE_LINE2":"2 47997  53.0548 116.9485 0002120  73.3066 172.7580 15.06378446  3565","PERIAPSIS":"545.811","NORAD_CAT_ID":"47997","CENTER_NAME":"EARTH","EPOCH":"2021-09-11T00:00:00.999648","REF_FRAME":"TEME","TIME_SYSTEM":"UTC"},{"EPOCH":"2021-09-11T00:00:00.999648","TIME_SYSTEM":"UTC","REF_FRAME":"TEME","MEAN_ANOMALY":"232.0868","CENTER_NAME":"EARTH","PERIAPSIS":"546.237","TLE_LINE2":"2 47998  53.0452  91.9894 0001570  96.6083 232.0868 15.06363858  3561","NORAD_CAT_ID":"47998","APOAPSIS":"548.412","MEAN_ELEMENT_THEORY":"SGP4","REV_AT_EPOCH":"356","RCS_SIZE":"LARGE","ECCENTRICITY":"0.00015700","ARG_OF_PERICENTER":"96.6083","INCLINATION":"53.0452","BSTAR":"0.00281520000000","TLE_LINE1":"1 47998U 21024X   21254.00001157  .00041860  00000-0  28152-2 0  9993","LAUNCH_DATE":"2021-03-24","OBJECT_ID":"2021-024X","COUNTRY_CODE":"US","OBJECT_NAME":"STARLINK-2296","CLASSIFICATION_TYPE":"U","GP_ID":"184473777","ELEMENT_SET_NO":"999","OBJECT_TYPE":"PAYLOAD","EPHEMERIS_TYPE":"0","MEAN_MOTION_DOT":"0.00041860","MEAN_MOTION_DDOT":"0.0000000000000","RA_OF_ASC_NODE":"91.9894","DECAY_DATE":null,"SEMIMAJOR_AXIS":"6925.459","PERIOD":"95.594","SITE":"AFETR","FILE":"3112758","MEAN_MOTION":"15.06363858"},{"TLE_LINE2":"2 47999  53.0451  76.4326 0004066   4.0578   9.1620 15.73219372  3670","NORAD_CAT_ID":"47999","PERIAPSIS":"346.969","CENTER_NAME":"EARTH","MEAN_ANOMALY":"9.1620","REF_FRAME":"TEME","TIME_SYSTEM":"UTC","EPOCH":"2021-09-11T00:00:00.999648","REV_AT_EPOCH":"367","APOAPSIS":"352.440","MEAN_ELEMENT_THEORY":"SGP4","BSTAR":"-0.00016859000000","ARG_OF_PERICENTER":"4.0578","INCLINATION":"53.0451","ECCENTRICITY":"0.00040660","RCS_SIZE":"LARGE","LAUNCH_DATE":"2021-03-24","OBJECT_ID":"2021-024Y","TLE_LINE1":"1 47999U 21024Y   21254.00001157 -.00024253  00000-0 -16859-3 0  9995","OBJECT_TYPE":"PAYLOAD","EPHEMERIS_TYPE":"0","ELEMENT_SET_NO":"999","GP_ID":"184474027","CLASSIFICATION_TYPE":"U","OBJECT_NAME":"STARLINK-2218","COUNTRY_CODE":"US","DECAY_DATE":null,"RA_OF_ASC_NODE":"76.4326","MEAN_MOTION_DDOT":"0.0000000000000","MEAN_MOTION_DOT":"-0.00024253","SEMIMAJOR_AXIS":"6727.840","FILE":"3112758","MEAN_MOTION":"15.73219372","SITE":"AFETR","PERIOD":"91.532"},{"DECAY_DATE":null,"RA_OF_ASC_NODE":"76.4319","MEAN_MOTION_DDOT":"0.0000000000000","MEAN_MOTION_DOT":"0.00053657","EPHEMERIS_TYPE":"0","OBJECT_TYPE":"PAYLOAD","GP_ID":"184474779","CLASSIFICATION_TYPE":"U","ELEMENT_SET_NO":"999","COUNTRY_CODE":"US","OBJECT_NAME":"STARLINK-2270","FILE":"3112758","MEAN_MOTION":"15.73187217","PERIOD":"91.534","SITE":"AFETR","SEMIMAJOR_AXIS":"6727.932","REV_AT_EPOCH":"367","MEAN_ELEMENT_THEORY":"SGP4","APOAPSIS":"352.453","CENTER_NAME":"EARTH","PERIAPSIS":"347.140","TLE_LINE2":"2 48000  53.0451  76.4319 0003948   2.6699  11.1905 15.73187217  3673","NORAD_CAT_ID":"48000","MEAN_ANOMALY":"11.1905","TIME_SYSTEM":"UTC","REF_FRAME":"TEME","EPOCH":"2021-09-11T00:00:00.999648","OBJECT_ID":"2021-024Z","LAUNCH_DATE":"2021-03-24","TLE_LINE1":"1 48000U 21024Z   21254.00001157  .00053657  00000-0  38431-3 0  9997","BSTAR":"0.00038431000000","ECCENTRICITY":"0.00039480","ARG_OF_PERICENTER":"2.6699","INCLINATION":"53.0451","RCS_SIZE":"LARGE"},{"SITE":"AFETR","PERIOD":"91.532","FILE":"3112758","MEAN_MOTION":"15.73221416","SEMIMAJOR_AXIS":"6727.834","MEAN_MOTION_DOT":"-0.00017846","MEAN_MOTION_DDOT":"0.0000000000000","RA_OF_ASC_NODE":"76.4300","DECAY_DATE":null,"OBJECT_NAME":"STARLINK-2262","COUNTRY_CODE":"US","ELEMENT_SET_NO":"999","GP_ID":"184475529","CLASSIFICATION_TYPE":"U","EPHEMERIS_TYPE":"0","OBJECT_TYPE":"PAYLOAD","TLE_LINE1":"1 48001U 21024AA  21254.00001157 -.00017846  00000-0 -12275-3 0  9998","LAUNCH_DATE":"2021-03-24","OBJECT_ID":"2021-024AA","RCS_SIZE":"LARGE","ARG_OF_PERICENTER":"7.3045","INCLINATION":"53.0451","ECCENTRICITY":"0.00043950","BSTAR":"-0.00012275000000","APOAPSIS":"352.656","MEAN_ELEMENT_THEORY":"SGP4","REV_AT_EPOCH":"368","EPOCH":"2021-09-11T00:00:00.999648","REF_FRAME":"TEME","TIME_SYSTEM":"UTC","MEAN_ANOMALY":"7.1788","NORAD_CAT_ID":"48001","TLE_LINE2":"2 48001  53.0451  76.4300 0004395   7.3045   7.1788 15.73221416  3683","PERIAPSIS":"346.742","CENTER_NAME":"EARTH"}];
